[{"OBJECT_NAME":"STARLINK-4204","OBJECT_ID":"2022-062AA","EPOCH":"2025-10-28T03:40:29.647488","MEAN_MOTION":15.08843465,"ECCENTRICITY":0.00013901,"INCLINATION":53.2171,"RA_OF_ASC_NODE":259.1017,"ARG_OF_PERICENTER":90.4484,"MEAN_ANOMALY":269.6668,"EPHEMERIS_TYPE":0,"CLASSIFICATION_TYPE":"U","NORAD_CAT_ID":52854,"ELEMENT_SET_NO":999,"REV_AT_EPOCH":18591,"BSTAR":4.2712432e-5,"MEAN_MOTION_DOT":3.92e-6,"MEAN_MOTION_DDOT":0},{"OBJECT_NAME":"STARLINK-4209","OBJECT_ID":"2022-062AB","EPOCH":"2025-10-29T09:36:55.353024","MEAN_MOTION":15.0884461,"ECCENTRICITY":0.0001335,"INCLINATION":53.2169,"RA_OF_ASC_NODE":253.4994,"ARG_OF_PERICENTER":84.5391,"MEAN_ANOMALY":275.5753,"EPHEMERIS_TYPE":0,"CLASSIFICATION_TYPE":"U","NORAD_CAT_ID":52855,"ELEMENT_SET_NO":999,"REV_AT_EPOCH":18610,"BSTAR":3.253e-5,"MEAN_MOTION_DOT":2.3e-6,"MEAN_MOTION_DDOT":0},{"OBJECT_NAME":"STARLINK-4201","OBJECT_ID":"2022-062AC","EPOCH":"2025-10-28T03:36:34.936704","MEAN_MOTION":15.08846107,"ECCENTRICITY":0.00013586,"INCLINATION":53.2169,"RA_OF_ASC_NODE":259.1618,"ARG_OF_PERICENTER":87.7176,"MEAN_ANOMALY":272.3972,"EPHEMERIS_TYPE":0,"CLASSIFICATION_TYPE":"U","NORAD_CAT_ID":52856,"ELEMENT_SET_NO":999,"REV_AT_EPOCH":18591,"BSTAR":0.00012890902,"MEAN_MOTION_DOT":1.765e-5,"MEAN_MOTION_DDOT":0},{"OBJECT_NAME":"STARLINK-4199","OBJECT_ID":"2022-062AD","EPOCH":"2025-10-29T04:40:10.179264","MEAN_MOTION":15.08845877,"ECCENTRICITY":0.0001455,"INCLINATION":53.2174,"RA_OF_ASC_NODE":254.4251,"ARG_OF_PERICENTER":87.5098,"MEAN_ANOMALY":272.6061,"EPHEMERIS_TYPE":0,"CLASSIFICATION_TYPE":"U","NORAD_CAT_ID":52857,"ELEMENT_SET_NO":999,"REV_AT_EPOCH":18607,"BSTAR":9.3543e-5,"MEAN_MOTION_DOT":1.201e-5,"MEAN_MOTION_DDOT":0},{"OBJECT_NAME":"STARLINK-4198","OBJECT_ID":"2022-062AE","EPOCH":"2025-10-28T05:05:17.330496","MEAN_MOTION":15.08844877,"ECCENTRICITY":0.00013688,"INCLINATION":53.2172,"RA_OF_ASC_NODE":258.8666,"ARG_OF_PERICENTER":89.4333,"MEAN_ANOMALY":270.6816,"EPHEMERIS_TYPE":0,"CLASSIFICATION_TYPE":"U","NORAD_CAT_ID":52858,"ELEMENT_SET_NO":999,"REV_AT_EPOCH":18592,"BSTAR":8.83617e-5,"MEAN_MOTION_DOT":1.119e-5,"MEAN_MOTION_DDOT":0},{"OBJECT_NAME":"STARLINK-4196","OBJECT_ID":"2022-062AF","EPOCH":"2025-10-29T04:34:52.796640","MEAN_MOTION":15.08837073,"ECCENTRICITY":0.0001406,"INCLINATION":53.2179,"RA_OF_ASC_NODE":254.4411,"ARG_OF_PERICENTER":84.7675,"MEAN_ANOMALY":275.3477,"EPHEMERIS_TYPE":0,"CLASSIFICATION_TYPE":"U","NORAD_CAT_ID":52859,"ELEMENT_SET_NO":999,"REV_AT_EPOCH":18607,"BSTAR":5.3679e-5,"MEAN_MOTION_DOT":5.66e-6,"MEAN_MOTION_DDOT":0},{"OBJECT_NAME":"STARLINK-4191","OBJECT_ID":"2022-062AG","EPOCH":"2025-10-29T04:45:28.338624","MEAN_MOTION":15.08844315,"ECCENTRICITY":0.0001481,"INCLINATION":53.2173,"RA_OF_ASC_NODE":254.4103,"ARG_OF_PERICENTER":89.9035,"MEAN_ANOMALY":270.2127,"EPHEMERIS_TYPE":0,"CLASSIFICATION_TYPE":"U","NORAD_CAT_ID":52860,"ELEMENT_SET_NO":999,"REV_AT_EPOCH":18607,"BSTAR":0.00013215,"MEAN_MOTION_DOT":1.816e-5,"MEAN_MOTION_DDOT":0},{"OBJECT_NAME":"STARLINK-4112","OBJECT_ID":"2022-062AH","EPOCH":"2025-10-28T04:18:57.930624","MEAN_MOTION":15.08844561,"ECCENTRICITY":0.00013459,"INCLINATION":53.2168,"RA_OF_ASC_NODE":258.9907,"ARG_OF_PERICENTER":92.2981,"MEAN_ANOMALY":267.8165,"EPHEMERIS_TYPE":0,"CLASSIFICATION_TYPE":"U","NORAD_CAT_ID":52861,"ELEMENT_SET_NO":999,"REV_AT_EPOCH":18592,"BSTAR":7.6420755e-5,"MEAN_MOTION_DOT":9.29e-6,"MEAN_MOTION_DDOT":0},{"OBJECT_NAME":"STARLINK-4010","OBJECT_ID":"2022-062AJ","EPOCH":"2025-10-29T04:29:34.542240","MEAN_MOTION":15.08843977,"ECCENTRICITY":0.0001154,"INCLINATION":53.2167,"RA_OF_ASC_NODE":254.4588,"ARG_OF_PERICENTER":91.9299,"MEAN_ANOMALY":268.1825,"EPHEMERIS_TYPE":0,"CLASSIFICATION_TYPE":"U","NORAD_CAT_ID":52862,"ELEMENT_SET_NO":999,"REV_AT_EPOCH":18607,"BSTAR":7.3609e-5,"MEAN_MOTION_DOT":8.84e-6,"MEAN_MOTION_DDOT":0},{"OBJECT_NAME":"STARLINK-4270","OBJECT_ID":"2022-062AK","EPOCH":"2025-10-29T04:18:58.995072","MEAN_MOTION":15.08821451,"ECCENTRICITY":0.0001277,"INCLINATION":53.2174,"RA_OF_ASC_NODE":254.4903,"ARG_OF_PERICENTER":97.0492,"MEAN_ANOMALY":263.0645,"EPHEMERIS_TYPE":0,"CLASSIFICATION_TYPE":"U","NORAD_CAT_ID":52863,"ELEMENT_SET_NO":999,"REV_AT_EPOCH":18607,"BSTAR":-0.00014416,"MEAN_MOTION_DOT":-2.58e-5,"MEAN_MOTION_DDOT":0},{"OBJECT_NAME":"STARLINK-4267","OBJECT_ID":"2022-062AL","EPOCH":"2025-10-29T04:24:16.534080","MEAN_MOTION":15.08836868,"ECCENTRICITY":0.0001236,"INCLINATION":53.2161,"RA_OF_ASC_NODE":254.4757,"ARG_OF_PERICENTER":83.6151,"MEAN_ANOMALY":276.4982,"EPHEMERIS_TYPE":0,"CLASSIFICATION_TYPE":"U","NORAD_CAT_ID":52864,"ELEMENT_SET_NO":999,"REV_AT_EPOCH":18607,"BSTAR":8.8846e-5,"MEAN_MOTION_DOT":1.126e-5,"MEAN_MOTION_DDOT":0},{"OBJECT_NAME":"STARLINK-4274","OBJECT_ID":"2022-062AM","EPOCH":"2025-10-28T04:12:16.491168","MEAN_MOTION":15.08847988,"ECCENTRICITY":0.00014479,"INCLINATION":53.2171,"RA_OF_ASC_NODE":259.0024,"ARG_OF_PERICENTER":103.6945,"MEAN_ANOMALY":256.4208,"EPHEMERIS_TYPE":0,"CLASSIFICATION_TYPE":"U","NORAD_CAT_ID":52865,"ELEMENT_SET_NO":999,"REV_AT_EPOCH":18592,"BSTAR":0.00029392501,"MEAN_MOTION_DOT":4.394e-5,"MEAN_MOTION_DDOT":0},{"OBJECT_NAME":"STARLINK-4272","OBJECT_ID":"2022-062AN","EPOCH":"2025-10-28T04:22:53.696352","MEAN_MOTION":15.08839757,"ECCENTRICITY":0.00014528,"INCLINATION":53.2174,"RA_OF_ASC_NODE":258.9695,"ARG_OF_PERICENTER":91.05,"MEAN_ANOMALY":269.0659,"EPHEMERIS_TYPE":0,"CLASSIFICATION_TYPE":"U","NORAD_CAT_ID":52866,"ELEMENT_SET_NO":999,"REV_AT_EPOCH":18592,"BSTAR":-3.5920777e-5,"MEAN_MOTION_DOT":-8.6e-6,"MEAN_MOTION_DDOT":0},{"OBJECT_NAME":"STARLINK-4126","OBJECT_ID":"2022-062AP","EPOCH":"2025-10-28T04:01:40.257120","MEAN_MOTION":15.08852914,"ECCENTRICITY":0.00014893,"INCLINATION":53.2171,"RA_OF_ASC_NODE":259.036,"ARG_OF_PERICENTER":92.6036,"MEAN_ANOMALY":267.5127,"EPHEMERIS_TYPE":0,"CLASSIFICATION_TYPE":"U","NORAD_CAT_ID":52867,"ELEMENT_SET_NO":999,"REV_AT_EPOCH":18592,"BSTAR":0.0001264355,"MEAN_MOTION_DOT":1.725e-5,"MEAN_MOTION_DDOT":0},{"OBJECT_NAME":"STARLINK-4261","OBJECT_ID":"2022-062AQ","EPOCH":"2025-10-28T04:17:38.300064","MEAN_MOTION":15.088153,"ECCENTRICITY":0.00013557,"INCLINATION":53.2162,"RA_OF_ASC_NODE":259.0129,"ARG_OF_PERICENTER":85.4526,"MEAN_ANOMALY":274.6621,"EPHEMERIS_TYPE":0,"CLASSIFICATION_TYPE":"U","NORAD_CAT_ID":52868,"ELEMENT_SET_NO":999,"REV_AT_EPOCH":18592,"BSTAR":-0.000184498,"MEAN_MOTION_DOT":-3.221e-5,"MEAN_MOTION_DDOT":0},{"OBJECT_NAME":"STARLINK-4266","OBJECT_ID":"2022-062AR","EPOCH":"2025-10-28T03:52:25.760928","MEAN_MOTION":15.08833573,"ECCENTRICITY":0.00015209,"INCLINATION":53.2179,"RA_OF_ASC_NODE":249.0663,"ARG_OF_PERICENTER":104.6185,"MEAN_ANOMALY":255.4976,"EPHEMERIS_TYPE":0,"CLASSIFICATION_TYPE":"U","NORAD_CAT_ID":52869,"ELEMENT_SET_NO":999,"REV_AT_EPOCH":18605,"BSTAR":5.272405e-5,"MEAN_MOTION_DOT":5.51e-6,"MEAN_MOTION_DDOT":0},{"OBJECT_NAME":"STARLINK-4195","OBJECT_ID":"2022-062AS","EPOCH":"2025-10-28T04:07:00.086592","MEAN_MOTION":15.08836392,"ECCENTRICITY":0.00013306,"INCLINATION":53.2172,"RA_OF_ASC_NODE":259.0193,"ARG_OF_PERICENTER":91.6181,"MEAN_ANOMALY":268.4964,"EPHEMERIS_TYPE":0,"CLASSIFICATION_TYPE":"U","NORAD_CAT_ID":52870,"ELEMENT_SET_NO":999,"REV_AT_EPOCH":18592,"BSTAR":6.3568982e-5,"MEAN_MOTION_DOT":7.24e-6,"MEAN_MOTION_DDOT":0},{"OBJECT_NAME":"STARLINK-4207","OBJECT_ID":"2022-062AT","EPOCH":"2025-10-28T13:08:50.475552","MEAN_MOTION":15.08835697,"ECCENTRICITY":0.00013776,"INCLINATION":53.2163,"RA_OF_ASC_NODE":247.3303,"ARG_OF_PERICENTER":96.8119,"MEAN_ANOMALY":263.303,"EPHEMERIS_TYPE":0,"CLASSIFICATION_TYPE":"U","NORAD_CAT_ID":52871,"ELEMENT_SET_NO":999,"REV_AT_EPOCH":18611,"BSTAR":2.2842703e-5,"MEAN_MOTION_DOT":7.6e-7,"MEAN_MOTION_DDOT":0},{"OBJECT_NAME":"STARLINK-4213","OBJECT_ID":"2022-062AU","EPOCH":"2025-10-28T03:43:11.781408","MEAN_MOTION":15.08839832,"ECCENTRICITY":0.00010589,"INCLINATION":53.2167,"RA_OF_ASC_NODE":249.0647,"ARG_OF_PERICENTER":93.6797,"MEAN_ANOMALY":266.4316,"EPHEMERIS_TYPE":0,"CLASSIFICATION_TYPE":"U","NORAD_CAT_ID":52872,"ELEMENT_SET_NO":999,"REV_AT_EPOCH":18605,"BSTAR":-0.00010265474,"MEAN_MOTION_DOT":-1.921e-5,"MEAN_MOTION_DDOT":0},{"OBJECT_NAME":"STARLINK-4211","OBJECT_ID":"2022-062AV","EPOCH":"2025-10-28T03:25:55.172352","MEAN_MOTION":15.08844413,"ECCENTRICITY":0.0001277,"INCLINATION":53.2156,"RA_OF_ASC_NODE":249.1448,"ARG_OF_PERICENTER":90.4994,"MEAN_ANOMALY":269.6145,"EPHEMERIS_TYPE":0,"CLASSIFICATION_TYPE":"U","NORAD_CAT_ID":52873,"ELEMENT_SET_NO":999,"REV_AT_EPOCH":18605,"BSTAR":3.4766873e-5,"MEAN_MOTION_DOT":2.66e-6,"MEAN_MOTION_DDOT":0},{"OBJECT_NAME":"STARLINK-4193","OBJECT_ID":"2022-062AX","EPOCH":"2025-10-28T03:20:37.678272","MEAN_MOTION":15.08840067,"ECCENTRICITY":0.00014602,"INCLINATION":53.2175,"RA_OF_ASC_NODE":249.163,"ARG_OF_PERICENTER":96.0798,"MEAN_ANOMALY":264.0361,"EPHEMERIS_TYPE":0,"CLASSIFICATION_TYPE":"U","NORAD_CAT_ID":52875,"ELEMENT_SET_NO":999,"REV_AT_EPOCH":18605,"BSTAR":-3.923622e-6,"MEAN_MOTION_DOT":-3.5e-6,"MEAN_MOTION_DDOT":0},{"OBJECT_NAME":"STARLINK-4200","OBJECT_ID":"2022-062AY","EPOCH":"2025-10-28T13:03:34.696512","MEAN_MOTION":15.08819483,"ECCENTRICITY":0.00012691,"INCLINATION":53.2168,"RA_OF_ASC_NODE":247.3455,"ARG_OF_PERICENTER":92.9809,"MEAN_ANOMALY":267.1328,"EPHEMERIS_TYPE":0,"CLASSIFICATION_TYPE":"U","NORAD_CAT_ID":52876,"ELEMENT_SET_NO":999,"REV_AT_EPOCH":18611,"BSTAR":-9.3748714e-5,"MEAN_MOTION_DOT":-1.779e-5,"MEAN_MOTION_DDOT":0},{"OBJECT_NAME":"STARLINK-4214","OBJECT_ID":"2022-062AZ","EPOCH":"2025-10-28T04:18:55.304064","MEAN_MOTION":15.08832695,"ECCENTRICITY":0.0001464,"INCLINATION":53.2184,"RA_OF_ASC_NODE":248.9879,"ARG_OF_PERICENTER":79.3836,"MEAN_ANOMALY":280.7321,"EPHEMERIS_TYPE":0,"CLASSIFICATION_TYPE":"U","NORAD_CAT_ID":52877,"ELEMENT_SET_NO":999,"REV_AT_EPOCH":18606,"BSTAR":-5.1766305e-5,"MEAN_MOTION_DOT":-1.112e-5,"MEAN_MOTION_DDOT":0}]
